start=new Date('2023-04-15T00:00:00.000Z').valueOf();
sats=[{"LAUNCH_DATE":"2020-06-04","MEAN_MOTION_DOT":"0.00004970","BSTAR":"0.00035226000000","TIME_SYSTEM":"UTC","OBJECT_ID":"2020-035AR","REF_FRAME":"TEME","TLE_LINE1":"1 45696U 20035AR  23104.80297242  .00004970  00000-0  35226-3 0  9995","RA_OF_ASC_NODE":"134.6346","ECCENTRICITY":"0.00013150","PERIOD":"95.592","APOAPSIS":"548.113","ARG_OF_PERICENTER":"100.6526","OBJECT_NAME":"STARLINK-1422","SEMIMAJOR_AXIS":"6925.338","MEAN_ANOMALY":"259.4611","CLASSIFICATION_TYPE":"U","COUNTRY_CODE":"US","SITE":"AFETR","INCLINATION":"53.0525","GP_ID":"230065631","TLE_LINE2":"2 45696  53.0525 134.6346 0001315 100.6526 259.4611 15.06403516158710","CENTER_NAME":"EARTH","OBJECT_TYPE":"PAYLOAD","MEAN_MOTION":"15.06403516","REV_AT_EPOCH":"15871","FILE":"3887497","DECAY_DATE":null,"ELEMENT_SET_NO":"999","PERIAPSIS":"546.292","RCS_SIZE":"LARGE","MEAN_ELEMENT_THEORY":"SGP4","MEAN_MOTION_DDOT":"0.0000000000000","EPHEMERIS_TYPE":"0","NORAD_CAT_ID":"45696","EPOCH":"2023-04-14T19:16:16.817088"},{"SITE":"AFETR","INCLINATION":"53.0531","MEAN_ANOMALY":"285.6937","CLASSIFICATION_TYPE":"U","COUNTRY_CODE":"US","PERIOD":"95.592","APOAPSIS":"548.138","SEMIMAJOR_AXIS":"6925.345","OBJECT_NAME":"STARLINK-1351","ARG_OF_PERICENTER":"74.4200","RA_OF_ASC_NODE":"117.1233","TLE_LINE1":"1 45697U 20035AS  23104.24824685  .00005091  00000-0  36043-3 0  9994","ECCENTRICITY":"0.00013400","REF_FRAME":"TEME","OBJECT_ID":"2020-035AS","TIME_SYSTEM":"UTC","MEAN_MOTION_DOT":"0.00005091","BSTAR":"0.00036043000000","LAUNCH_DATE":"2020-06-04","EPHEMERIS_TYPE":"0","NORAD_CAT_ID":"45697","EPOCH":"2023-04-14T05:57:28.527840","MEAN_MOTION_DDOT":"0.0000000000000","MEAN_ELEMENT_THEORY":"SGP4","RCS_SIZE":"LARGE","PERIAPSIS":"546.282","ELEMENT_SET_NO":"999","DECAY_DATE":null,"FILE":"3887333","MEAN_MOTION":"15.06401089","OBJECT_TYPE":"PAYLOAD","REV_AT_EPOCH":"15891","TLE_LINE2":"2 45697  53.0531 117.1233 0001340  74.4200 285.6937 15.06401089158911","CENTER_NAME":"EARTH","GP_ID":"230055206"},{"ECCENTRICITY":"0.00015220","TLE_LINE1":"1 45698U 20035AT  23104.30258014  .00010197  00000-0  70225-3 0  9992","RA_OF_ASC_NODE":"116.8664","ARG_OF_PERICENTER":"99.9204","OBJECT_NAME":"STARLINK-1370","SEMIMAJOR_AXIS":"6925.314","APOAPSIS":"548.233","PERIOD":"95.591","COUNTRY_CODE":"US","MEAN_ANOMALY":"260.1957","CLASSIFICATION_TYPE":"U","INCLINATION":"53.0515","SITE":"AFETR","LAUNCH_DATE":"2020-06-04","BSTAR":"0.00070225000000","MEAN_MOTION_DOT":"0.00010197","TIME_SYSTEM":"UTC","OBJECT_ID":"2020-035AT","REF_FRAME":"TEME","ELEMENT_SET_NO":"999","PERIAPSIS":"546.125","RCS_SIZE":"LARGE","MEAN_ELEMENT_THEORY":"SGP4","MEAN_MOTION_DDOT":"0.0000000000000","NORAD_CAT_ID":"45698","EPOCH":"2023-04-14T07:15:42.924096","EPHEMERIS_TYPE":"0","GP_ID":"230053955","CENTER_NAME":"EARTH","TLE_LINE2":"2 45698  53.0515 116.8664 0001522  99.9204 260.1957 15.06411276159332","REV_AT_EPOCH":"15933","MEAN_MOTION":"15.06411276","OBJECT_TYPE":"PAYLOAD","FILE":"3887333","DECAY_DATE":null},{"EPHEMERIS_TYPE":"0","NORAD_CAT_ID":"45699","EPOCH":"2023-04-14T07:01:10.998624","MEAN_MOTION_DDOT":"0.0000000000000","RCS_SIZE":"LARGE","MEAN_ELEMENT_THEORY":"SGP4","ELEMENT_SET_NO":"999","PERIAPSIS":"546.069","FILE":"3887116","DECAY_DATE":null,"MEAN_MOTION":"15.06401640","OBJECT_TYPE":"PAYLOAD","REV_AT_EPOCH":"15896","TLE_LINE2":"2 45699  53.0524 116.9241 0001646  82.4045 277.7131 15.06401640158962","CENTER_NAME":"EARTH","GP_ID":"230030230","SITE":"AFETR","INCLINATION":"53.0524","MEAN_ANOMALY":"277.7131","CLASSIFICATION_TYPE":"U","COUNTRY_CODE":"US","APOAPSIS":"548.348","PERIOD":"95.592","ARG_OF_PERICENTER":"82.4045","SEMIMAJOR_AXIS":"6925.344","OBJECT_NAME":"STARLINK-1398","TLE_LINE1":"1 45699U 20035AU  23104.29248841  .00005854  00000-0  41155-3 0  9992","RA_OF_ASC_NODE":"116.9241","ECCENTRICITY":"0.00016460","OBJECT_ID":"2020-035AU","REF_FRAME":"TEME","TIME_SYSTEM":"UTC","MEAN_MOTION_DOT":"0.00005854","BSTAR":"0.00041155000000","LAUNCH_DATE":"2020-06-04"},{"TIME_SYSTEM":"UTC","OBJECT_ID":"2020-035AV","REF_FRAME":"TEME","LAUNCH_DATE":"2020-06-04","BSTAR":"0.00007536700000","MEAN_MOTION_DOT":"0.00000842","MEAN_ANOMALY":"270.4046","CLASSIFICATION_TYPE":"U","COUNTRY_CODE":"US","SITE":"AFETR","INCLINATION":"53.0521","TLE_LINE1":"1 45700U 20035AV  23104.35514051  .00000842  00000-0  75367-4 0  9996","RA_OF_ASC_NODE":"116.6433","ECCENTRICITY":"0.00012780","PERIOD":"95.592","APOAPSIS":"548.080","ARG_OF_PERICENTER":"89.7090","SEMIMAJOR_AXIS":"6925.330","OBJECT_NAME":"STARLINK-1400","MEAN_MOTION":"15.06406190","OBJECT_TYPE":"PAYLOAD","REV_AT_EPOCH":"15933","FILE":"3887333","DECAY_DATE":null,"GP_ID":"230055455","TLE_LINE2":"2 45700  53.0521 116.6433 0001278  89.7090 270.4046 15.06406190159335","CENTER_NAME":"EARTH","MEAN_MOTION_DDOT":"0.0000000000000","EPHEMERIS_TYPE":"0","NORAD_CAT_ID":"45700","EPOCH":"2023-04-14T08:31:24.140064","ELEMENT_SET_NO":"999","PERIAPSIS":"546.310","RCS_SIZE":"LARGE","MEAN_ELEMENT_THEORY":"SGP4"},{"MEAN_ANOMALY":"258.7502","CLASSIFICATION_TYPE":"U","COUNTRY_CODE":"US","SITE":"AFETR","INCLINATION":"53.0538","TLE_LINE1":"1 45701U 20035AW  23104.31827428  .00001816  00000-0  14080-3 0  9994","RA_OF_ASC_NODE":"116.8041","ECCENTRICITY":"0.00012310","PERIOD":"95.592","APOAPSIS":"548.075","ARG_OF_PERICENTER":"101.3625","OBJECT_NAME":"STARLINK-1403","SEMIMAJOR_AXIS":"6925.357","TIME_SYSTEM":"UTC","OBJECT_ID":"2020-035AW","REF_FRAME":"TEME","LAUNCH_DATE":"2020-06-04","BSTAR":"0.00014080000000","MEAN_MOTION_DOT":"0.00001816","MEAN_MOTION_DDOT":"0.0000000000000","EPHEMERIS_TYPE":"0","NORAD_CAT_ID":"45701","EPOCH":"2023-04-14T07:38:18.897792","ELEMENT_SET_NO":"999","PERIAPSIS":"546.370","RCS_SIZE":"LARGE","MEAN_ELEMENT_THEORY":"SGP4","MEAN_MOTION":"15.06397209","OBJECT_TYPE":"PAYLOAD","REV_AT_EPOCH":"15932","FILE":"3887333","DECAY_DATE":null,"GP_ID":"230055706","TLE_LINE2":"2 45701  53.0538 116.8041 0001231 101.3625 258.7502 15.06397209159320","CENTER_NAME":"EARTH"},{"MEAN_ELEMENT_THEORY":"SGP4","RCS_SIZE":"LARGE","PERIAPSIS":"546.237","ELEMENT_SET_NO":"999","NORAD_CAT_ID":"45702","EPOCH":"2023-04-14T10:22:51.889728","EPHEMERIS_TYPE":"0","MEAN_MOTION_DDOT":"0.0000000000000","CENTER_NAME":"EARTH","TLE_LINE2":"2 45702  53.0526 116.2960 0001425  88.7002 271.4150 15.06396496159344","GP_ID":"230054456","DECAY_DATE":null,"FILE":"3887333","REV_AT_EPOCH":"15934","MEAN_MOTION":"15.06396496","OBJECT_TYPE":"PAYLOAD","OBJECT_NAME":"STARLINK-1405","SEMIMAJOR_AXIS":"6925.359","ARG_OF_PERICENTER":"88.7002","PERIOD":"95.592","APOAPSIS":"548.211","ECCENTRICITY":"0.00014250","RA_OF_ASC_NODE":"116.2960","TLE_LINE1":"1 45702U 20035AX  23104.43254502  .00003866  00000-0  27828-3 0  9996","INCLINATION":"53.0526","SITE":"AFETR","COUNTRY_CODE":"US","MEAN_ANOMALY":"271.4150","CLASSIFICATION_TYPE":"U","BSTAR":"0.00027828000000","MEAN_MOTION_DOT":"0.00003866","LAUNCH_DATE":"2020-06-04","REF_FRAME":"TEME","OBJECT_ID":"2020-035AX","TIME_SYSTEM":"UTC"},{"CENTER_NAME":"EARTH","TLE_LINE2":"2 45703  53.0532 116.9095 0001519  99.4804 260.6356 15.06391022159327","GP_ID":"230054706","DECAY_DATE":null,"FILE":"3887333","REV_AT_EPOCH":"15932","OBJECT_TYPE":"PAYLOAD","MEAN_MOTION":"15.06391022","MEAN_ELEMENT_THEORY":"SGP4","RCS_SIZE":"LARGE","PERIAPSIS":"546.189","ELEMENT_SET_NO":"999","NORAD_CAT_ID":"45703","EPOCH":"2023-04-14T07:06:28.617120","EPHEMERIS_TYPE":"0","MEAN_MOTION_DDOT":"0.0000000000000","BSTAR":"0.00003198500000","MEAN_MOTION_DOT":"0.00000195","LAUNCH_DATE":"2020-06-04","REF_FRAME":"TEME","OBJECT_ID":"2020-035AY","TIME_SYSTEM":"UTC","SEMIMAJOR_AXIS":"6925.376","OBJECT_NAME":"STARLINK-1407","ARG_OF_PERICENTER":"99.4804","APOAPSIS":"548.293","PERIOD":"95.593","ECCENTRICITY":"0.00015190","RA_OF_ASC_NODE":"116.9095","TLE_LINE1":"1 45703U 20035AY  23104.29616455  .00000195  00000-0  31985-4 0  9992","INCLINATION":"53.0532","SITE":"AFETR","COUNTRY_CODE":"US","MEAN_ANOMALY":"260.6356","CLASSIFICATION_TYPE":"U"},{"REF_FRAME":"TEME","OBJECT_ID":"2020-035AZ","TIME_SYSTEM":"UTC","MEAN_MOTION_DOT":"0.00001285","BSTAR":"0.00010515000000","LAUNCH_DATE":"2020-06-04","SITE":"AFETR","INCLINATION":"53.0538","CLASSIFICATION_TYPE":"U","MEAN_ANOMALY":"262.7223","COUNTRY_CODE":"US","APOAPSIS":"548.226","PERIOD":"95.593","OBJECT_NAME":"STARLINK-1409","SEMIMAJOR_AXIS":"6925.373","ARG_OF_PERICENTER":"97.3928","RA_OF_ASC_NODE":"146.4954","TLE_LINE1":"1 45704U 20035AZ  23104.38828785  .00001285  00000-0  10515-3 0  9990","ECCENTRICITY":"0.00014270","DECAY_DATE":null,"FILE":"3887333","OBJECT_TYPE":"PAYLOAD","MEAN_MOTION":"15.06392037","REV_AT_EPOCH":"15892","TLE_LINE2":"2 45704  53.0538 146.4954 0001427  97.3928 262.7223 15.06392037158926","CENTER_NAME":"EARTH","GP_ID":"230054957","EPHEMERIS_TYPE":"0","NORAD_CAT_ID":"45704","EPOCH":"2023-04-14T09:19:08.070240","MEAN_MOTION_DDOT":"0.0000000000000","MEAN_ELEMENT_THEORY":"SGP4","RCS_SIZE":"LARGE","PERIAPSIS":"546.250","ELEMENT_SET_NO":"999"},{"OBJECT_ID":"2020-035BA","REF_FRAME":"TEME","TIME_SYSTEM":"UTC","BSTAR":"0.00046206000000","MEAN_MOTION_DOT":"0.00006607","LAUNCH_DATE":"2020-06-04","SITE":"AFETR","INCLINATION":"53.0533","CLASSIFICATION_TYPE":"U","MEAN_ANOMALY":"265.3561","COUNTRY_CODE":"US","APOAPSIS":"548.040","PERIOD":"95.592","ARG_OF_PERICENTER":"94.7562","SEMIMAJOR_AXIS":"6925.361","OBJECT_NAME":"STARLINK-1410","TLE_LINE1":"1 45705U 20035BA  23104.48137443  .00006607  00000-0  46206-3 0  9995","RA_OF_ASC_NODE":"146.0778","ECCENTRICITY":"0.00011750","FILE":"3887333","DECAY_DATE":null,"OBJECT_TYPE":"PAYLOAD","MEAN_MOTION":"15.06395785","REV_AT_EPOCH":"15892","TLE_LINE2":"2 45705  53.0533 146.0778 0001175  94.7562 265.3561 15.06395785158924","CENTER_NAME":"EARTH","GP_ID":"230055207","EPHEMERIS_TYPE":"0","EPOCH":"2023-04-14T11:33:10.750752","NORAD_CAT_ID":"45705","MEAN_MOTION_DDOT":"0.0000000000000","RCS_SIZE":"LARGE","MEAN_ELEMENT_THEORY":"SGP4","ELEMENT_SET_NO":"999","PERIAPSIS":"546.413"}];
